{"type": "FeatureCollection", "features": [ {"type": "Feature", "properties": {"norad_id": 66417, "name": "HULIANWANG DIGUI 13F", "group": "last-30-days", "lat": 18.551454002296822, "lon": -49.94078413663981, "alt_km": 805.4895883548079, "timestamp": "2025-12-05T04:52:14.141211+00:00", "meta": {"OBJECT_NAME": "HULIANWANG DIGUI 13F", "OBJECT_ID": "2025-258F", "EPOCH": "2025-12-04T15:16:37.404192", "MEAN_MOTION": 14.23479086, "ECCENTRICITY": 0.00124087, "INCLINATION": 49.9997, "RA_OF_ASC_NODE": 296.0767, "ARG_OF_PERICENTER": 334.514, "MEAN_ANOMALY": 25.516, "EPHEMERIS_TYPE": 0, "CLASSIFICATION_TYPE": "U", "NORAD_CAT_ID": 66417, "ELEMENT_SET_NO": 999, "REV_AT_EPOCH": 350, "BSTAR": 0.00015703187, "MEAN_MOTION_DOT": 2e-06, "MEAN_MOTION_DDOT": 0}, "tle": {"line1": "1 66417U 25258F   25338.63654403  .00000200  00000+0  15703-3 0  9998", "line2": "2 66417  49.9997 296.0767 0012408 334.5140  25.5160 14.23479086  3506"}}, "geometry": {"type": "Point", "coordinates": [-49.94078413663981, 18.551454002296822]}}, {"type": "Feature", "properties": {"norad_id": 66418, "name": "HULIANWANG DIGUI 13G", "group": "last-30-days", "lat": 33.534413856222834, "lon": -32.53632244786413, "alt_km": 806.6071136170167, "timestamp": "2025-12-05T04:52:14.141221+00:00", "meta": {"OBJECT_NAME": "HULIANWANG DIGUI 13G", "OBJECT_ID": "2025-258G", "EPOCH": "2025-12-04T15:10:34.276224", "MEAN_MOTION": 14.23490562, "ECCENTRICITY": 0.00124318, "INCLINATION": 50.0018, "RA_OF_ASC_NODE": 296.0558, "ARG_OF_PERICENTER": 329.9358, "MEAN_ANOMALY": 30.0841, "EPHEMERIS_TYPE": 0, "CLASSIFICATION_TYPE": "U", "NORAD_CAT_ID": 66418, "ELEMENT_SET_NO": 999, "REV_AT_EPOCH": 350, "BSTAR": 0.00015083927, "MEAN_MOTION_DOT": 1.86e-06, "MEAN_MOTION_DDOT": 0}, "tle": {"line1": "1 66418U 25258G   25338.63234116  .00000186  00000+0  15084-3 0  9999", "line2": "2 66418  50.0018 296.0558 0012431 329.9358  30.0841 14.23490562  3506"}}, "geometry": {"type": "Point", "coordinates": [-32.53632244786413, 33.534413856222834]}}, {"type": "Feature", "properties": {"norad_id": 66419, "name": "HULIANWANG DIGUI 13H", "group": "last-30-days", "lat": 38.214745071714695, "lon": -24.981526519702705, "alt_km": 806.8158134611731, "timestamp": "2025-12-05T04:52:14.141230+00:00", "meta": {"OBJECT_NAME": "HULIANWANG DIGUI 13H", "OBJECT_ID": "2025-258H", "EPOCH": "2025-12-04T15:08:25.166976", "MEAN_MOTION": 14.23507653, "ECCENTRICITY": 0.0012081, "INCLINATION": 50.0006, "RA_OF_ASC_NODE": 296.0454, "ARG_OF_PERICENTER": 331.3469, "MEAN_ANOMALY": 28.6779, "EPHEMERIS_TYPE": 0, "CLASSIFICATION_TYPE": "U", "NORAD_CAT_ID": 66419, "ELEMENT_SET_NO": 999, "REV_AT_EPOCH": 350, "BSTAR": 0.00014559855, "MEAN_MOTION_DOT": 1.74e-06, "MEAN_MOTION_DDOT": 0}, "tle": {"line1": "1 66419U 25258H   25338.63084684  .00000174  00000+0  14560-3 0  9998", "line2": "2 66419  50.0006 296.0454 0012081 331.3469  28.6779 14.23507653  3503"}}, "geometry": {"type": "Point", "coordinates": [-24.981526519702705, 38.214745071714695]}}, {"type": "Feature", "properties": {"norad_id": 66420, "name": "HULIANWANG DIGUI 13J", "group": "last-30-days", "lat": 41.35479073615029, "lon": -18.716812946380223, "alt_km": 806.3321591826716, "timestamp": "2025-12-05T04:52:14.141242+00:00", "meta": {"OBJECT_NAME": "HULIANWANG DIGUI 13J", "OBJECT_ID": "2025-258J", "EPOCH": "2025-12-04T15:06:47.522880", "MEAN_MOTION": 14.23475282, "ECCENTRICITY": 0.00113849, "INCLINATION": 50.0023, "RA_OF_ASC_NODE": 296.0493, "ARG_OF_PERICENTER": 338.4785, "MEAN_ANOMALY": 21.5648, "EPHEMERIS_TYPE": 0, "CLASSIFICATION_TYPE": "U", "NORAD_CAT_ID": 66420, "ELEMENT_SET_NO": 999, "REV_AT_EPOCH": 349, "BSTAR": 0.00014104025, "MEAN_MOTION_DOT": 1.63e-06, "MEAN_MOTION_DDOT": 0}, "tle": {"line1": "1 66420U 25258J   25338.62971670  .00000163  00000+0  14104-3 0  9991", "line2": "2 66420  50.0023 296.0493 0011384 338.4785  21.5648 14.23475282  3498"}}, "geometry": {"type": "Point", "coordinates": [-18.716812946380223, 41.35479073615029]}}, {"type": "Feature", "properties": {"norad_id": 66421, "name": "CZ-12 R/B", "group": "last-30-days", "lat": -0.6757038676821406, "lon": 111.21691017576502, "alt_km": 716.8644755427795, "timestamp": "2025-12-05T04:52:14.141251+00:00", "meta": {"OBJECT_NAME": "CZ-12 R/B", "OBJECT_ID": "2025-258K", "EPOCH": "2025-12-04T14:43:43.596192", "MEAN_MOTION": 14.42317153, "ECCENTRICITY": 0.00646003, "INCLINATION": 49.9966, "RA_OF_ASC_NODE": 293.2072, "ARG_OF_PERICENTER": 220.1931, "MEAN_ANOMALY": 139.4203, "EPHEMERIS_TYPE": 0, "CLASSIFICATION_TYPE": "U", "NORAD_CAT_ID": 66421, "ELEMENT_SET_NO": 999, "REV_AT_EPOCH": 354, "BSTAR": 4.0819589e-05, "MEAN_MOTION_DOT": -3.2e-07, "MEAN_MOTION_DDOT": 0}, "tle": {"line1": "1 66421U 25258K   25338.61369903 -.00000032  00000+0  40820-4 0  9992", "line2": "2 66421  49.9966 293.2072 0064600 220.1931 139.4203 14.42317153  3548"}}, "geometry": {"type": "Point", "coordinates": [111.21691017576502, -0.6757038676821406]}}, {"type": "Feature", "properties": {"norad_id": 66422, "name": "STARLINK-35617", "group": "last-30-days", "lat": -20.64318375825206, "lon": -64.61822874905853, "alt_km": 448.09462289361545, "timestamp": "2025-12-05T04:52:14.141261+00:00", "meta": {"OBJECT_NAME": "STARLINK-35617", "OBJECT_ID": "2025-259A", "EPOCH": "2025-12-04T18:00:02.000160", "MEAN_MOTION": 15.41867505, "ECCENTRICITY": 0.0001686, "INCLINATION": 43.0008, "RA_OF_ASC_NODE": 94.1478, "ARG_OF_PERICENTER": 312.3501, "MEAN_ANOMALY": 263.1248, "EPHEMERIS_TYPE": 0, "CLASSIFICATION_TYPE": "U", "NORAD_CAT_ID": 66422, "ELEMENT_SET_NO": 999, "REV_AT_EPOCH": 499, "BSTAR": -0.044535, "MEAN_MOTION_DOT": -0.01749391, "MEAN_MOTION_DDOT": 0}, "tle": {"line1": "1 66422U 25259A   25338.75002315 -.01749391  00000+0 -44535-1 0  9994", "line2": "2 66422  43.0008  94.1478 0001686 312.3501 263.1248 15.41867505  4996"}}, "geometry": {"type": "Point", "coordinates": [-64.61822874905853, -20.64318375825206]}}, {"type": "Feature", "properties": {"norad_id": 66423, "name": "STARLINK-35618", "group": "last-30-days", "lat": -28.048993363145204, "lon": -53.62054873104288, "alt_km": 443.88548295457986, "timestamp": "2025-12-05T04:52:14.141270+00:00", "meta": {"OBJECT_NAME": "STARLINK-35618", "OBJECT_ID": "2025-259B", "EPOCH": "2025-12-04T18:00:02.000160", "MEAN_MOTION": 15.43221245, "ECCENTRICITY": 0.0001436, "INCLINATION": 43.0005, "RA_OF_ASC_NODE": 94.1233, "ARG_OF_PERICENTER": 282.2729, "MEAN_ANOMALY": 303.5165, "EPHEMERIS_TYPE": 0, "CLASSIFICATION_TYPE": "U", "NORAD_CAT_ID": 66423, "ELEMENT_SET_NO": 999, "REV_AT_EPOCH": 499, "BSTAR": -0.044128, "MEAN_MOTION_DOT": -0.01808318, "MEAN_MOTION_DDOT": 0}, "tle": {"line1": "1 66423U 25259B   25338.75002315 -.01808318  00000+0 -44128-1 0  9998", "line2": "2 66423  43.0005  94.1233 0001436 282.2729 303.5165 15.43221245  4997"}}, "geometry": {"type": "Point", "coordinates": [-53.62054873104288, -28.048993363145204]}}, {"type": "Feature", "properties": {"norad_id": 66424, "name": "STARLINK-35588", "group": "last-30-days", "lat": -33.78325036040768, "lon": -42.63697995498006, "alt_km": 440.59827679842147, "timestamp": "2025-12-05T04:52:14.141279+00:00", "meta": {"OBJECT_NAME": "STARLINK-35588", "OBJECT_ID": "2025-259C", "EPOCH": "2025-12-04T18:00:02.000160", "MEAN_MOTION": 15.44616308, "ECCENTRICITY": 0.0001234, "INCLINATION": 43.001, "RA_OF_ASC_NODE": 94.1021, "ARG_OF_PERICENTER": 280.047, "MEAN_ANOMALY": 314.6854, "EPHEMERIS_TYPE": 0, "CLASSIFICATION_TYPE": "U", "NORAD_CAT_ID": 66424, "ELEMENT_SET_NO": 999, "REV_AT_EPOCH": 499, "BSTAR": -0.04729, "MEAN_MOTION_DOT": -0.02008349, "MEAN_MOTION_DDOT": 0}, "tle": {"line1": "1 66424U 25259C   25338.75002315 -.02008349  00000+0 -47290-1 0  9999", "line2": "2 66424  43.0010  94.1021 0001234 280.0470 314.6854 15.44616308  4991"}}, "geometry": {"type": "Point", "coordinates": [-42.63697995498006, -33.78325036040768]}}, {"type": "Feature", "properties": {"norad_id": 66425, "name": "STARLINK-35555", "group": "last-30-days", "lat": -37.92104857369177, "lon": -31.824518215040083, "alt_km": 436.7923407191538, "timestamp": "2025-12-05T04:52:14.141288+00:00", "meta": {"OBJECT_NAME": "STARLINK-35555", "OBJECT_ID": "2025-259D", "EPOCH": "2025-12-04T18:00:02.000160", "MEAN_MOTION": 15.45944837, "ECCENTRICITY": 0.0001171, "INCLINATION": 43.0011, "RA_OF_ASC_NODE": 94.0815, "ARG_OF_PERICENTER": 281.5697, "MEAN_ANOMALY": 320.6937, "EPHEMERIS_TYPE": 0, "CLASSIFICATION_TYPE": "U", "NORAD_CAT_ID": 66425, "ELEMENT_SET_NO": 999, "REV_AT_EPOCH": 499, "BSTAR": -0.044921, "MEAN_MOTION_DOT": -0.01998588, "MEAN_MOTION_DDOT": 0}, "tle": {"line1": "1 66425U 25259D   25338.75002315 -.01998588  00000+0 -44921-1 0  9990", "line2": "2 66425  43.0011  94.0815 0001171 281.5697 320.6937 15.45944837  4991"}}, "geometry": {"type": "Point", "coordinates": [-31.824518215040083, -37.92104857369177]}}, {"type": "Feature", "properties": {"norad_id": 66426, "name": "STARLINK-35589", "group": "last-30-days", "lat": -40.589269562602134, "lon": -21.723962370538047, "alt_km": 432.81191227552245, "timestamp": "2025-12-05T04:52:14.141298+00:00", "meta": {"OBJECT_NAME": "STARLINK-35589", "OBJECT_ID": "2025-259E", "EPOCH": "2025-12-04T18:00:02.000160", "MEAN_MOTION": 15.47293608, "ECCENTRICITY": 0.0001333, "INCLINATION": 43.0006, "RA_OF_ASC_NODE": 94.0675, "ARG_OF_PERICENTER": 276.7191, "MEAN_ANOMALY": 331.6551, "EPHEMERIS_TYPE": 0, "CLASSIFICATION_TYPE": "U", "NORAD_CAT_ID": 66426, "ELEMENT_SET_NO": 999, "REV_AT_EPOCH": 499, "BSTAR": -0.043812, "MEAN_MOTION_DOT": -0.02038479, "MEAN_MOTION_DDOT": 0}, "tle": {"line1": "1 66426U 25259E   25338.75002315 -.02038479  00000+0 -43812-1 0  9994", "line2": "2 66426  43.0006  94.0675 0001333 276.7191 331.6551 15.47293608  4994"}}, "geometry": {"type": "Point", "coordinates": [-21.723962370538047, -40.589269562602134]}}]}